[
  {
    "OBJECT_NAME": "STARLINK-30158",
    "OBJECT_ID": "23105J",
    "EPOCH": "2025-11-11T01:31:48.622944",
    "MEAN_MOTION": 15.02550261,
    "ECCENTRICITY": 0.0002232,
    "INCLINATION": 43.0037,
    "RA_OF_ASC_NODE": 186.4468,
    "ARG_OF_PERICENTER": 249.5294,
    "MEAN_ANOMALY": 110.5309,
    "EPHEMERIS_TYPE": 0,
    "CLASSIFICATION_TYPE": "U",
    "NORAD_CAT_ID": 57438,
    "ELEMENT_SET_NO": 999,
    "REV_AT_EPOCH": 12771,
    "BSTAR": 0.0,
    "MEAN_MOTION_DOT": -2.93e-06,
    "MEAN_MOTION_DDOT": 0.0,
    "TLE_LINE1": "1 57438U 23105J   25315.06375721 -.00000293  00000+0 -66235-5 0  9997",
    "TLE_LINE2": "2 57438  43.0037 186.4468 0002232 249.5294 110.5309 15.02550261127711",
    "COMMENT": "Grouped by shell and plane from TLE"
  },
  {
    "OBJECT_NAME": "STARLINK-30159",
    "OBJECT_ID": "23105L",
    "EPOCH": "2025-11-11T08:00:03.000384",
    "MEAN_MOTION": 15.20496227,
    "ECCENTRICITY": 0.0002017,
    "INCLINATION": 42.9999,
    "RA_OF_ASC_NODE": 183.3496,
    "ARG_OF_PERICENTER": 277.9556,
    "MEAN_ANOMALY": 73.8068,
    "EPHEMERIS_TYPE": 0,
    "CLASSIFICATION_TYPE": "U",
    "NORAD_CAT_ID": 57440,
    "ELEMENT_SET_NO": 999,
    "REV_AT_EPOCH": 580,
    "BSTAR": 0.035838,
    "MEAN_MOTION_DOT": 0.00858275,
    "MEAN_MOTION_DDOT": 0.0,
    "TLE_LINE1": "1 57440U 23105L   25315.33336806  .00858275  00000+0  35838-1 0  9991",
    "TLE_LINE2": "2 57440  42.9999 183.3496 0002017 277.9556  73.8068 15.20496227  5802",
    "COMMENT": "Grouped by shell and plane from TLE"
  },
  {
    "OBJECT_NAME": "STARLINK-30160",
    "OBJECT_ID": "23105M",
    "EPOCH": "2025-11-11T01:17:24.245376",
    "MEAN_MOTION": 15.02542995,
    "ECCENTRICITY": 0.0001191,
    "INCLINATION": 43.0023,
    "RA_OF_ASC_NODE": 186.3668,
    "ARG_OF_PERICENTER": 263.8848,
    "MEAN_ANOMALY": 96.1859,
    "EPHEMERIS_TYPE": 0,
    "CLASSIFICATION_TYPE": "U",
    "NORAD_CAT_ID": 57441,
    "ELEMENT_SET_NO": 999,
    "REV_AT_EPOCH": 12755,
    "BSTAR": 3.9431e-05,
    "MEAN_MOTION_DOT": 3.29e-06,
    "MEAN_MOTION_DDOT": 0.0,
    "TLE_LINE1": "1 57441U 23105M   25315.05375284  .00000329  00000+0  39431-4 0  9999",
    "TLE_LINE2": "2 57441  43.0023 186.3668 0001191 263.8848  96.1859 15.02542995127554",
    "COMMENT": "Grouped by shell and plane from TLE"
  },
  {
    "OBJECT_NAME": "STARLINK-30146",
    "OBJECT_ID": "23105N",
    "EPOCH": "2025-11-11T01:12:35.657280",
    "MEAN_MOTION": 15.02571667,
    "ECCENTRICITY": 9.77e-05,
    "INCLINATION": 43.0038,
    "RA_OF_ASC_NODE": 186.3446,
    "ARG_OF_PERICENTER": 305.1188,
    "MEAN_ANOMALY": 54.9563,
    "EPHEMERIS_TYPE": 0,
    "CLASSIFICATION_TYPE": "U",
    "NORAD_CAT_ID": 57442,
    "ELEMENT_SET_NO": 999,
    "REV_AT_EPOCH": 12777,
    "BSTAR": 0.00018367,
    "MEAN_MOTION_DOT": 2.281e-05,
    "MEAN_MOTION_DDOT": 0.0,
    "TLE_LINE1": "1 57442U 23105N   25315.05041270  .00002281  00000+0  18367-3 0  9998",
    "TLE_LINE2": "2 57442  43.0038 186.3446 0000977 305.1188  54.9563 15.02571667127779",
    "COMMENT": "Grouped by shell and plane from TLE"
  },
  {
    "OBJECT_NAME": "STARLINK-30197",
    "OBJECT_ID": "23105P",
    "EPOCH": "2025-11-11T01:07:50.563200",
    "MEAN_MOTION": 15.02534405,
    "ECCENTRICITY": 0.0001323,
    "INCLINATION": 43.0018,
    "RA_OF_ASC_NODE": 186.319,
    "ARG_OF_PERICENTER": 282.8428,
    "MEAN_ANOMALY": 77.2266,
    "EPHEMERIS_TYPE": 0,
    "CLASSIFICATION_TYPE": "U",
    "NORAD_CAT_ID": 57443,
    "ELEMENT_SET_NO": 999,
    "REV_AT_EPOCH": 12771,
    "BSTAR": 0.00021588,
    "MEAN_MOTION_DOT": 2.714e-05,
    "MEAN_MOTION_DDOT": 0.0,
    "TLE_LINE1": "1 57443U 23105P   25315.04711300  .00002714  00000+0  21588-3 0  9996",
    "TLE_LINE2": "2 57443  43.0018 186.3190 0001323 282.8428  77.2266 15.02534405127719",
    "COMMENT": "Grouped by shell and plane from TLE"
  },
  {
    "OBJECT_NAME": "STARLINK-30181",
    "OBJECT_ID": "23105Q",
    "EPOCH": "2025-11-11T00:48:39.520800",
    "MEAN_MOTION": 15.0253474,
    "ECCENTRICITY": 0.0001278,
    "INCLINATION": 43.0029,
    "RA_OF_ASC_NODE": 186.2204,
    "ARG_OF_PERICENTER": 267.372,
    "MEAN_ANOMALY": 92.6976,
    "EPHEMERIS_TYPE": 0,
    "CLASSIFICATION_TYPE": "U",
    "NORAD_CAT_ID": 57444,
    "ELEMENT_SET_NO": 999,
    "REV_AT_EPOCH": 12777,
    "BSTAR": 0.00015759999999999998,
    "MEAN_MOTION_DOT": 1.926e-05,
    "MEAN_MOTION_DDOT": 0.0,
    "TLE_LINE1": "1 57444U 23105Q   25315.03379075  .00001926  00000+0  15760-3 0  9994",
    "TLE_LINE2": "2 57444  43.0029 186.2204 0001278 267.3720  92.6976 15.02534740127776",
    "COMMENT": "Grouped by shell and plane from TLE"
  },
  {
    "OBJECT_NAME": "STARLINK-30215",
    "OBJECT_ID": "23105R",
    "EPOCH": "2025-11-11T00:55:02.703936",
    "MEAN_MOTION": 15.02544238,
    "ECCENTRICITY": 0.0001096,
    "INCLINATION": 43.0031,
    "RA_OF_ASC_NODE": 186.2558,
    "ARG_OF_PERICENTER": 272.6026,
    "MEAN_ANOMALY": 87.469,
    "EPHEMERIS_TYPE": 0,
    "CLASSIFICATION_TYPE": "U",
    "NORAD_CAT_ID": 57445,
    "ELEMENT_SET_NO": 999,
    "REV_AT_EPOCH": 12755,
    "BSTAR": 0.00010915,
    "MEAN_MOTION_DOT": 1.271e-05,
    "MEAN_MOTION_DDOT": 0.0,
    "TLE_LINE1": "1 57445U 23105R   25315.03822574  .00001271  00000+0  10915-3 0  9992",
    "TLE_LINE2": "2 57445  43.0031 186.2558 0001096 272.6026  87.4690 15.02544238127552",
    "COMMENT": "Grouped by shell and plane from TLE"
  },
  {
    "OBJECT_NAME": "STARLINK-30178",
    "OBJECT_ID": "23105T",
    "EPOCH": "2025-11-11T00:53:27.074688",
    "MEAN_MOTION": 15.0253686,
    "ECCENTRICITY": 0.000116,
    "INCLINATION": 43.0017,
    "RA_OF_ASC_NODE": 186.2455,
    "ARG_OF_PERICENTER": 270.572,
    "MEAN_ANOMALY": 89.499,
    "EPHEMERIS_TYPE": 0,
    "CLASSIFICATION_TYPE": "U",
    "NORAD_CAT_ID": 57447,
    "ELEMENT_SET_NO": 999,
    "REV_AT_EPOCH": 12771,
    "BSTAR": 7.845600000000001e-05,
    "MEAN_MOTION_DOT": 8.56e-06,
    "MEAN_MOTION_DDOT": 0.0,
    "TLE_LINE1": "1 57447U 23105T   25315.03711892  .00000856  00000+0  78456-4 0  9997",
    "TLE_LINE2": "2 57447  43.0017 186.2455 0001160 270.5720  89.4990 15.02536860127719",
    "COMMENT": "Grouped by shell and plane from TLE"
  },
  {
    "OBJECT_NAME": "STARLINK-30196",
    "OBJECT_ID": "23105U",
    "EPOCH": "2025-11-11T00:39:02.381760",
    "MEAN_MOTION": 15.02542441,
    "ECCENTRICITY": 0.0002437,
    "INCLINATION": 43.0021,
    "RA_OF_ASC_NODE": 186.1667,
    "ARG_OF_PERICENTER": 254.351,
    "MEAN_ANOMALY": 105.7063,
    "EPHEMERIS_TYPE": 0,
    "CLASSIFICATION_TYPE": "U",
    "NORAD_CAT_ID": 57448,
    "ELEMENT_SET_NO": 999,
    "REV_AT_EPOCH": 12755,
    "BSTAR": 0.00045498,
    "MEAN_MOTION_DOT": 5.949e-05,
    "MEAN_MOTION_DDOT": 0.0,
    "TLE_LINE1": "1 57448U 23105U   25315.02711090  .00005949  00000+0  45498-3 0  9994",
    "TLE_LINE2": "2 57448  43.0021 186.1667 0002437 254.3510 105.7063 15.02542441127551",
    "COMMENT": "Grouped by shell and plane from TLE"
  },
  {
    "OBJECT_NAME": "STARLINK-30225",
    "OBJECT_ID": "23105V",
    "EPOCH": "2025-11-11T00:34:16.493664",
    "MEAN_MOTION": 15.02535023,
    "ECCENTRICITY": 0.0001207,
    "INCLINATION": 43.0032,
    "RA_OF_ASC_NODE": 186.1453,
    "ARG_OF_PERICENTER": 267.7809,
    "MEAN_ANOMALY": 92.2895,
    "EPHEMERIS_TYPE": 0,
    "CLASSIFICATION_TYPE": "U",
    "NORAD_CAT_ID": 57449,
    "ELEMENT_SET_NO": 999,
    "REV_AT_EPOCH": 12777,
    "BSTAR": 5.797900000000001e-05,
    "MEAN_MOTION_DOT": 5.8e-06,
    "MEAN_MOTION_DDOT": 0.0,
    "TLE_LINE1": "1 57449U 23105V   25315.02380201  .00000580  00000+0  57979-4 0  9995",
    "TLE_LINE2": "2 57449  43.0032 186.1453 0001207 267.7809  92.2895 15.02535023127775",
    "COMMENT": "Grouped by shell and plane from TLE"
  },
  {
    "OBJECT_NAME": "STARLINK-30216",
    "OBJECT_ID": "23105X",
    "EPOCH": "2025-11-11T00:29:28.955328",
    "MEAN_MOTION": 15.02540111,
    "ECCENTRICITY": 0.0001057,
    "INCLINATION": 43.0028,
    "RA_OF_ASC_NODE": 186.1367,
    "ARG_OF_PERICENTER": 269.941,
    "MEAN_ANOMALY": 90.1311,
    "EPHEMERIS_TYPE": 0,
    "CLASSIFICATION_TYPE": "U",
    "NORAD_CAT_ID": 57451,
    "ELEMENT_SET_NO": 999,
    "REV_AT_EPOCH": 12755,
    "BSTAR": 0.00010998,
    "MEAN_MOTION_DOT": 1.282e-05,
    "MEAN_MOTION_DDOT": 0.0,
    "TLE_LINE1": "1 57451U 23105X   25315.02047402  .00001282  00000+0  10998-3 0  9990",
    "TLE_LINE2": "2 57451  43.0028 186.1367 0001057 269.9410  90.1311 15.02540111127552",
    "COMMENT": "Grouped by shell and plane from TLE"
  },
  {
    "OBJECT_NAME": "STARLINK-30447",
    "OBJECT_ID": "23144L",
    "EPOCH": "2025-11-11T00:43:57.918144",
    "MEAN_MOTION": 15.02545864,
    "ECCENTRICITY": 0.0001824,
    "INCLINATION": 43.0034,
    "RA_OF_ASC_NODE": 186.7588,
    "ARG_OF_PERICENTER": 264.4947,
    "MEAN_ANOMALY": 95.5688,
    "EPHEMERIS_TYPE": 0,
    "CLASSIFICATION_TYPE": "U",
    "NORAD_CAT_ID": 57874,
    "ELEMENT_SET_NO": 999,
    "REV_AT_EPOCH": 12005,
    "BSTAR": 0.00010975999999999999,
    "MEAN_MOTION_DOT": 1.28e-05,
    "MEAN_MOTION_DDOT": 0.0,
    "TLE_LINE1": "1 57874U 23144L   25315.03053146  .00001280  00000+0  10976-3 0  9999",
    "TLE_LINE2": "2 57874  43.0034 186.7588 0001824 264.4947  95.5688 15.02545864120050",
    "COMMENT": "Grouped by shell and plane from TLE"
  },
  {
    "OBJECT_NAME": "STARLINK-34956",
    "OBJECT_ID": "25175A",
    "EPOCH": "2025-11-11T04:21:58.359744",
    "MEAN_MOTION": 15.05657139,
    "ECCENTRICITY": 0.0003001,
    "INCLINATION": 97.6015,
    "RA_OF_ASC_NODE": 185.7708,
    "ARG_OF_PERICENTER": 87.2852,
    "MEAN_ANOMALY": 272.8718,
    "EPHEMERIS_TYPE": 0,
    "CLASSIFICATION_TYPE": "U",
    "NORAD_CAT_ID": 65174,
    "ELEMENT_SET_NO": 999,
    "REV_AT_EPOCH": 1477,
    "BSTAR": 0.0005655500000000001,
    "MEAN_MOTION_DOT": 8.111e-05,
    "MEAN_MOTION_DDOT": 0.0,
    "TLE_LINE1": "1 65174U 25175A   25315.18192546  .00008111  00000+0  56555-3 0  9994",
    "TLE_LINE2": "2 65174  97.6015 185.7708 0003001  87.2852 272.8718 15.05657139 14771",
    "COMMENT": "Grouped by shell and plane from TLE"
  }
]